{
  "type": "FeatureCollection",
  "features": [
    {
      "type": "Feature",
      "geometry": {
        "type": "LineString",
        "coordinates": [
          [
            79.06776279678532,
            30.72766459103734
          ],
          [
            79.06787075545856,
            30.72225351522241
          ],
          [
            79.06914498830997,
            30.72118994398086
          ],
          [
            79.06920970406661,
            30.717943293184064
          ],
          [
            79.07048386354732,
            30.716879705101853
          ],
          [
            79.07052697127097,
            30.71471526828313
          ],
          [
            79.06929597539803,
            30.71361442273517
          ],
          [
            79.06931754031265,
            30.71253220463728
          ],
          [
            79.06316304399,
            30.707027819854936
          ],
          [
            79.05955733875908,
            30.699396206021603
          ],
          [
            79.0521736742227,
            30.692790415121365
          ],
          [
            79.05219541233116,
            30.69170820454222
          ],
          [
            79.04973443965746,
            30.68950619025442
          ],
          [
            79.04975620213926,
            30.688423980701458
          ],
          [
            79.04852577043192,
            30.687322958199672
          ],
          [
            79.04859108912324,
            30.684076330207265
          ],
          [
            79.04613038602406,
            30.681874256945402
          ],
          [
            79.04615218209928,
            30.680792048449142
          ],
          [
            79.04250504012428,
            30.675324446709002
          ],
          [
            79.0425487005845,
            30.673160032032577
          ],
          [
            79.0388801642189,
            30.668774550072193
          ],
          [
            79.0389238941175,
            30.666610137914684
          ],
          [
            79.03279589794491,
            30.66002227105639
          ],
          [
            79.03281782367027,
            30.658940067572367
          ],
          [
            79.02787651198845,
            30.655617551540864
          ],
          [
            79.02789848867499,
            30.654535350530356
          ],
          [
            79.02423129359802,
            30.65014950198388
          ],
          [
            79.02427531742136,
            30.647985102710116
          ],
          [
            79.02302365100864,
            30.647966066071202
          ]
        ]
      },
      "properties": {
        "upstream": "kedarnath",
        "downstream": "gaurikund",
        "length_m": 10938.5,
        "method": "DEM D8 flow path"
      }
    },
    {
      "type": "Feature",
      "geometry": {
        "type": "LineString",
        "coordinates": [
          [
            79.02302365100864,
            30.647966066071202
          ],
          [
            79.0217940237559,
            30.64686481909429
          ],
          [
            79.02054237365084,
            30.646845759190178
          ],
          [
            79.00947711713114,
            30.636933958510394
          ],
          [
            79.00447107284305,
            30.636857194657782
          ],
          [
            79.00324179952052,
            30.635755785664603
          ],
          [
            78.99948732429132,
            30.63569805277442
          ],
          [
            78.9996209578573,
            30.629204935874487
          ],
          [
            79.00089461906356,
            30.628141999597275
          ],
          [
            79.00093912371183,
            30.625977623697935
          ],
          [
            79.003441858032,
            30.62601608541774
          ],
          [
            79.00467101699581,
            30.62711748875198
          ]
        ]
      },
      "properties": {
        "upstream": "gaurikund",
        "downstream": "sonprayag",
        "length_m": 4366.2,
        "method": "DEM D8 flow path"
      }
    },
    {
      "type": "Feature",
      "geometry": {
        "type": "LineString",
        "coordinates": [
          [
            79.00467101699581,
            30.62711748875198
          ],
          [
            79.00590020377359,
            30.628218881507426
          ],
          [
            79.00972086805662,
            30.625029835188542
          ],
          [
            79.00974302003219,
            30.623947640990696
          ],
          [
            79.01228996028773,
            30.621821538743863
          ],
          [
            79.01231208085818,
            30.620739342320544
          ],
          [
            79.02122539022953,
            30.613297540759206
          ],
          [
            79.0212694164501,
            30.611133133148844
          ],
          [
            79.02511086475532,
            30.606861368629044
          ],
          [
            79.02513282962943,
            30.605779161307556
          ],
          [
            79.02640590463211,
            30.60471594579836
          ],
          [
            79.0264498006493,
            30.602551528554333
          ],
          [
            79.02899580698832,
            30.60042505197587
          ],
          [
            79.030356365352,
            30.5950329440142
          ],
          [
            79.03160735642085,
            30.59505188062846
          ],
          [
            79.03288021715477,
            30.59398859088874
          ],
          [
            79.03292395056044,
            30.591824161629777
          ],
          [
            79.03419675338871,
            30.59076085604664
          ],
          [
            79.03544769247456,
            30.59077975337043
          ],
          [
            79.04565072956724,
            30.581190483639
          ],
          [
            79.05065403576467,
            30.581265539353975
          ],
          [
            79.05192651019495,
            30.580202044284647
          ],
          [
            79.054428144929,
            30.58023947445742
          ],
          [
            79.05565736073682,
            30.581340402911266
          ],
          [
            79.05940986675793,
            30.58139642447421
          ],
          [
            79.05943142844447,
            30.580314190689133
          ],
          [
            79.06070379888801,
            30.579250604944058
          ],
          [
            79.0619546099804,
            30.579269241168774
          ],
          [
            79.06197614158037,
            30.578187005396302
          ],
          [
            79.06579300316446,
            30.574996123952644
          ],
          [
            79.06585745562431,
            30.57174940654186
          ],
          [
            79.06712964222125,
            30.570685748825557
          ],
          [
            79.0671511090133,
            30.56960350831001
          ],
          [
            79.06840180107848,
            30.569622077316048
          ],
          [
            79.06967393219742,
            30.568558392014907
          ],
          [
            79.06723696455143,
            30.565274544310697
          ],
          [
            79.06727988534318,
            30.56311006114882
          ],
          [
            79.06855193899466,
            30.56204638270584
          ],
          [
            79.0685948250839,
            30.55988189678839
          ],
          [
            79.06736571297422,
            30.558781092500805
          ],
          [
            79.06990967235565,
            30.55665371390627
          ],
          [
            79.07491179136322,
            30.556727783705707
          ],
          [
            79.07745553825518,
            30.554600247635047
          ],
          [
            79.07870604549775,
            30.55461870950541
          ],
          [
            79.07997786466284,
            30.553554908014217
          ],
          [
            79.08002048273258,
            30.551390404706382
          ],
          [
            79.07879133706768,
            30.55028970605753
          ],
          [
            79.08514985555435,
            30.544970541188366
          ],
          [
            79.08890102738773,
            30.54502565354401
          ],
          [
            79.0915076814119,
            30.53965103217398
          ],
          [
            79.09277916348326,
            30.53858708909085
          ],
          [
            79.09400833446087,
            30.539687657938554
          ],
          [
            79.09527979112694,
            30.538623689301588
          ],
          [
            79.09534316952457,
            30.535376897544594
          ],
          [
            79.09411403436054,
            30.534276342271184
          ],
          [
            79.09413517090364,
            30.533194078558065
          ],
          [
            79.09042679500753,
            30.530974612795365
          ],
          [
            79.09051148666227,
            30.526645563902473
          ],
          [
            79.08928251302532,
            30.525544968573914
          ],
          [
            79.0893248773503,
            30.52338044415642
          ],
          [
            79.08568063448669,
            30.51791407651473
          ],
          [
            79.08576549239436,
            30.513585030956122
          ]
        ]
      },
      "properties": {
        "upstream": "sonprayag",
        "downstream": "guptkashi",
        "length_m": 19310.9,
        "method": "DEM D8 flow path"
      }
    },
    {
      "type": "Feature",
      "geometry": {
        "type": "LineString",
        "coordinates": [
          [
            79.08576549239436,
            30.513585030956122
          ],
          [
            79.08589274476334,
            30.50709145682112
          ],
          [
            79.08716384072069,
            30.506027548165783
          ],
          [
            79.08722740646506,
            30.502780755544407
          ],
          [
            79.08849842985398,
            30.501716830200394
          ],
          [
            79.08854077133353,
            30.499552298857846
          ],
          [
            79.08608354573136,
            30.497351082577097
          ],
          [
            79.08610474009325,
            30.4962688178063
          ],
          [
            79.08737568633997,
            30.49520489933359
          ],
          [
            79.08369008633353,
            30.49190303263496
          ],
          [
            79.08379615607556,
            30.48649170991204
          ],
          [
            79.08506699297708,
            30.485427808113954
          ],
          [
            79.0851305761423,
            30.482181009214866
          ],
          [
            79.0814667518324,
            30.477796832024932
          ],
          [
            79.08153043511497,
            30.4745500361778
          ],
          [
            79.08030218950012,
            30.47344937998677
          ],
          [
            79.08032342761089,
            30.472367114915638
          ],
          [
            79.07909522225205,
            30.471266448752093
          ],
          [
            79.0765963410732,
            30.471229611078897
          ],
          [
            79.07414007297852,
            30.469028202387026
          ],
          [
            79.07418267682756,
            30.46686367842801
          ],
          [
            79.07545334572794,
            30.465799860924665
          ],
          [
            79.07549591505389,
            30.463635334220132
          ],
          [
            79.07426787066626,
            30.462534628191438
          ],
          [
            79.07433175392005,
            30.45928783848546
          ],
          [
            79.07560231817342,
            30.458224014078187
          ],
          [
            79.0756448713442,
            30.45605948466926
          ],
          [
            79.07193977241805,
            30.453839610510872
          ],
          [
            79.07450205846457,
            30.450629724103234
          ],
          [
            79.07465101434548,
            30.443053863878657
          ],
          [
            79.07342322494917,
            30.44195315809462
          ],
          [
            79.07228065637601,
            30.43652337932944
          ],
          [
            79.06741277720079,
            30.429955890590726
          ],
          [
            79.06754082136342,
            30.423462303275713
          ],
          [
            79.06387986038831,
            30.419077722774503
          ]
        ]
      },
      "properties": {
        "upstream": "guptkashi",
        "downstream": "chandrapuri",
        "length_m": 12390.6,
        "method": "DEM D8 flow path"
      }
    },
    {
      "type": "Feature",
      "geometry": {
        "type": "LineString",
        "coordinates": [
          [
            79.06387986038831,
            30.419077722774503
          ],
          [
            79.06265248291034,
            30.417976929951585
          ],
          [
            79.06146792882927,
            30.41471160160083
          ],
          [
            79.05658035165243,
            30.409226027401914
          ],
          [
            79.05533171792422,
            30.4092074330003
          ],
          [
            79.05154281932755,
            30.411316092352504
          ],
          [
            79.04781839713691,
            30.41017787085113
          ],
          [
            79.04536425930415,
            30.407975995041838
          ],
          [
            79.04538582736969,
            30.40689374151327
          ],
          [
            79.04415881230919,
            30.40579278845289
          ],
          [
            79.04420197009927,
            30.403628282038948
          ],
          [
            79.04052116545992,
            30.400325363485198
          ],
          [
            79.0367539861606,
            30.401351347733794
          ],
          [
            79.02941504534566,
            30.393662777998088
          ],
          [
            79.02442139071854,
            30.393587324681413
          ],
          [
            79.01824491128737,
            30.390246024603524
          ]
        ]
      },
      "properties": {
        "upstream": "chandrapuri",
        "downstream": "agastmuni",
        "length_m": 6522.6,
        "method": "DEM D8 flow path"
      }
    },
    {
      "type": "Feature",
      "geometry": {
        "type": "LineString",
        "coordinates": [
          [
            79.01824491128737,
            30.390246024603524
          ],
          [
            79.0145873888417,
            30.385860191451616
          ],
          [
            79.01209077998783,
            30.385822214006847
          ],
          [
            79.00718545192304,
            30.381417186120487
          ],
          [
            79.00468896726281,
            30.381379072251598
          ],
          [
            79.00346273379431,
            30.38027776692389
          ],
          [
            79.0022145081842,
            30.380258681027318
          ],
          [
            78.99730990873627,
            30.375853310742304
          ],
          [
            78.99733197850192,
            30.374771083365435
          ],
          [
            78.99487986864516,
            30.372568336741324
          ],
          [
            78.99494614595052,
            30.3693216572322
          ],
          [
            78.99372016980404,
            30.368220270135055
          ],
          [
            78.98623179791035,
            30.368105058848545
          ],
          [
            78.98496154027804,
            30.369168035565757
          ],
          [
            78.97883253125266,
            30.363660552491936
          ],
          [
            78.97887705495404,
            30.361496118116712
          ],
          [
            78.97401906085253,
            30.354925518881153
          ],
          [
            78.97406367496578,
            30.352761088061364
          ],
          [
            78.97533382129744,
            30.351698210573296
          ],
          [
            78.97544526077942,
            30.346287124988468
          ],
          [
            78.9730166483834,
            30.34300179632038
          ],
          [
            78.97052119165392,
            30.342963073753914
          ],
          [
            78.9668451418184,
            30.33965826279747
          ],
          [
            78.9668898865241,
            30.337493836561535
          ],
          [
            78.96815989893449,
            30.33643102104887
          ],
          [
            78.96822696213441,
            30.333184377147234
          ],
          [
            78.96700172704202,
            30.33208276757315
          ],
          [
            78.96704645475181,
            30.32991833861847
          ],
          [
            78.96831636275026,
            30.328855515893377
          ],
          [
            78.96838340047604,
            30.325608867914383
          ],
          [
            78.96595550093893,
            30.322323432248847
          ],
          [
            78.96600023419337,
            30.320159001472305
          ],
          [
            78.96980951091388,
            30.31697050239403
          ],
          [
            78.96987646755464,
            30.31372384550307
          ],
          [
            78.9724380457101,
            30.310515883134578
          ],
          [
            78.97368536373388,
            30.310535213450212
          ],
          [
            78.9761355110054,
            30.312738286066832
          ],
          [
            78.97738286003,
            30.312757582408832
          ],
          [
            78.9799219719733,
            30.31063168683775
          ],
          [
            78.98007736996801,
            30.303056096582168
          ],
          [
            78.97885235027505,
            30.30195460435751
          ]
        ]
      },
      "properties": {
        "upstream": "agastmuni",
        "downstream": "rudraprayag",
        "length_m": 14526.5,
        "method": "DEM D8 flow path"
      }
    }
  ]
}